[{"OBJECT_NAME":"NINGXIA-1 1","OBJECT_ID":"2019-076A","EPOCH":"2026-03-09T23:45:52.530912","MEAN_MOTION":14.02025027,"ECCENTRICITY":0.00109317,"INCLINATION":45.0057,"RA_OF_ASC_NODE":263.1421,"ARG_OF_PERICENTER":45.9238,"MEAN_ANOMALY":314.2494,"EPHEMERIS_TYPE":0,"CLASSIFICATION_TYPE":"U","NORAD_CAT_ID":44779,"ELEMENT_SET_NO":999,"REV_AT_EPOCH":32393,"BSTAR":9.6328735e-5,"MEAN_MOTION_DOT":1.8e-7,"MEAN_MOTION_DDOT":0},{"OBJECT_NAME":"OPS 7869 (DMSP 4B F1)","OBJECT_ID":"1968-042A","EPOCH":"2026-03-09T23:11:47.510304","MEAN_MOTION":14.15873676,"ECCENTRICITY":0.00517053,"INCLINATION":98.5608,"RA_OF_ASC_NODE":263.6964,"ARG_OF_PERICENTER":226.9203,"MEAN_ANOMALY":132.7639,"EPHEMERIS_TYPE":0,"CLASSIFICATION_TYPE":"U","NORAD_CAT_ID":3266,"ELEMENT_SET_NO":999,"REV_AT_EPOCH":89909,"BSTAR":6.9799751e-5,"MEAN_MOTION_DOT":9.7e-7,"MEAN_MOTION_DDOT":0}]
